CCSDS_OMM_VERS = 2.0
CREATION_DATE  = 
ORIGINATOR     = 

OBJECT_NAME    = ATLAS CENTAUR 2
OBJECT_ID      = 1963-047A
CENTER_NAME    = EARTH
REF_FRAME      = TEME
TIME_SYSTEM    = UTC
MEAN_ELEMENT_THEORY = SGP/SGP4

EPOCH          = 2026-03-03T11:12:23.357664
MEAN_MOTION    = 14.12045494
ECCENTRICITY   = .0547826
INCLINATION    = 30.3524
RA_OF_ASC_NODE = 230.4202
ARG_OF_PERICENTER = 25.4455
MEAN_ANOMALY   = 337.2095

EPHEMERIS_TYPE = 0
CLASSIFICATION_TYPE = U
NORAD_CAT_ID   = 694
ELEMENT_SET_NO = 999
REV_AT_EPOCH   = 13074
BSTAR          = .20102E-3
MEAN_MOTION_DOT = .1727E-4
MEAN_MOTION_DDOT = 0

CCSDS_OMM_VERS = 2.0
CREATION_DATE  = 
ORIGINATOR     = 

OBJECT_NAME    = THOR AGENA D R/B
OBJECT_ID      = 1964-002A
CENTER_NAME    = EARTH
REF_FRAME      = TEME
TIME_SYSTEM    = UTC
MEAN_ELEMENT_THEORY = SGP/SGP4

EPOCH          = 2026-03-03T10:50:41.384832
MEAN_MOTION    = 14.34015812
ECCENTRICITY   = .0031915
INCLINATION    = 99.1228
RA_OF_ASC_NODE = 75.4495
ARG_OF_PERICENTER = 276.7754
MEAN_ANOMALY   = 82.9798

EPHEMERIS_TYPE = 0
CLASSIFICATION_TYPE = U
NORAD_CAT_ID   = 733
ELEMENT_SET_NO = 999
REV_AT_EPOCH   = 23740
BSTAR          = .12203E-3
MEAN_MOTION_DOT = .293E-5
MEAN_MOTION_DDOT = 0

CCSDS_OMM_VERS = 2.0
CREATION_DATE  = 
ORIGINATOR     = 

OBJECT_NAME    = SL-3 R/B
OBJECT_ID      = 1964-053B
CENTER_NAME    = EARTH
REF_FRAME      = TEME
TIME_SYSTEM    = UTC
MEAN_ELEMENT_THEORY = SGP/SGP4

EPOCH          = 2026-03-03T04:34:31.881792
MEAN_MOTION    = 14.61361057
ECCENTRICITY   = .007947
INCLINATION    = 65.0788
RA_OF_ASC_NODE = 350.2898
ARG_OF_PERICENTER = 294.2851
MEAN_ANOMALY   = 64.9963

EPHEMERIS_TYPE = 0
CLASSIFICATION_TYPE = U
NORAD_CAT_ID   = 877
ELEMENT_SET_NO = 999
REV_AT_EPOCH   = 26584
BSTAR          = .1162E-3
MEAN_MOTION_DOT = .476E-5
MEAN_MOTION_DDOT = 0

CCSDS_OMM_VERS = 2.0
CREATION_DATE  = 
ORIGINATOR     = 

OBJECT_NAME    = SL-8 R/B
OBJECT_ID      = 1967-045B
CENTER_NAME    = EARTH
REF_FRAME      = TEME
TIME_SYSTEM    = UTC
MEAN_ELEMENT_THEORY = SGP/SGP4

EPOCH          = 2026-03-03T06:39:47.155104
MEAN_MOTION    = 14.45615280
ECCENTRICITY   = .0063929
INCLINATION    = 74.0136
RA_OF_ASC_NODE = 0.0625
ARG_OF_PERICENTER = 7.8474
MEAN_ANOMALY   = 352.3668

EPHEMERIS_TYPE = 0
CLASSIFICATION_TYPE = U
NORAD_CAT_ID   = 2802
ELEMENT_SET_NO = 999
REV_AT_EPOCH   = 8809
BSTAR          = .16903E-3
MEAN_MOTION_DOT = .584E-5
MEAN_MOTION_DDOT = 0

CCSDS_OMM_VERS = 2.0
CREATION_DATE  = 
ORIGINATOR     = 

OBJECT_NAME    = SL-8 R/B
OBJECT_ID      = 1968-040B
CENTER_NAME    = EARTH
REF_FRAME      = TEME
TIME_SYSTEM    = UTC
MEAN_ELEMENT_THEORY = SGP/SGP4

EPOCH          = 2026-03-03T04:30:08.190720
MEAN_MOTION    = 15.03201860
ECCENTRICITY   = .0024193
INCLINATION    = 74.0331
RA_OF_ASC_NODE = 326.9792
ARG_OF_PERICENTER = 152.8748
MEAN_ANOMALY   = 207.3710

EPHEMERIS_TYPE = 0
CLASSIFICATION_TYPE = U
NORAD_CAT_ID   = 3230
ELEMENT_SET_NO = 999
REV_AT_EPOCH   = 8903
BSTAR          = .28775E-3
MEAN_MOTION_DOT = .3877E-4
MEAN_MOTION_DDOT = 0

CCSDS_OMM_VERS = 2.0
CREATION_DATE  = 
ORIGINATOR     = 

OBJECT_NAME    = OAO 2
OBJECT_ID      = 1968-110A
CENTER_NAME    = EARTH
REF_FRAME      = TEME
TIME_SYSTEM    = UTC
MEAN_ELEMENT_THEORY = SGP/SGP4

EPOCH          = 2026-03-03T02:11:26.806272
MEAN_MOTION    = 14.47303058
ECCENTRICITY   = .0005189
INCLINATION    = 34.9936
RA_OF_ASC_NODE = 302.0647
ARG_OF_PERICENTER = 151.8779
MEAN_ANOMALY   = 208.2192

EPHEMERIS_TYPE = 0
CLASSIFICATION_TYPE = U
NORAD_CAT_ID   = 3597
ELEMENT_SET_NO = 999
REV_AT_EPOCH   = 1814
BSTAR          = .94349E-4
MEAN_MOTION_DOT = .331E-5
MEAN_MOTION_DDOT = 0

CCSDS_OMM_VERS = 2.0
CREATION_DATE  = 
ORIGINATOR     = 

OBJECT_NAME    = ISIS 1
OBJECT_ID      = 1969-009A
CENTER_NAME    = EARTH
REF_FRAME      = TEME
TIME_SYSTEM    = UTC
MEAN_ELEMENT_THEORY = SGP/SGP4

EPOCH          = 2026-03-03T06:12:50.370048
MEAN_MOTION    = 11.30411838
ECCENTRICITY   = .1707823
INCLINATION    = 88.4549
RA_OF_ASC_NODE = 156.0096
ARG_OF_PERICENTER = 102.1350
MEAN_ANOMALY   = 277.5422

EPHEMERIS_TYPE = 0
CLASSIFICATION_TYPE = U
NORAD_CAT_ID   = 3669
ELEMENT_SET_NO = 999
REV_AT_EPOCH   = 34780
BSTAR          = .13476E-3
MEAN_MOTION_DOT = .213E-5
MEAN_MOTION_DDOT = 0

CCSDS_OMM_VERS = 2.0
CREATION_DATE  = 
ORIGINATOR     = 

OBJECT_NAME    = SERT 2
OBJECT_ID      = 1970-009A
CENTER_NAME    = EARTH
REF_FRAME      = TEME
TIME_SYSTEM    = UTC
MEAN_ELEMENT_THEORY = SGP/SGP4

EPOCH          = 2026-03-03T10:49:48.372384
MEAN_MOTION    = 13.58729201
ECCENTRICITY   = .0004805
INCLINATION    = 99.2752
RA_OF_ASC_NODE = 5.8864
ARG_OF_PERICENTER = 170.9589
MEAN_ANOMALY   = 308.1213

EPHEMERIS_TYPE = 0
CLASSIFICATION_TYPE = U
NORAD_CAT_ID   = 4327
ELEMENT_SET_NO = 999
REV_AT_EPOCH   = 77904
BSTAR          = .60976E-4
MEAN_MOTION_DOT = .3E-7
MEAN_MOTION_DDOT = 0

CCSDS_OMM_VERS = 2.0
CREATION_DATE  = 
ORIGINATOR     = 

OBJECT_NAME    = SL-3 R/B
OBJECT_ID      = 1971-028B
CENTER_NAME    = EARTH
REF_FRAME      = TEME
TIME_SYSTEM    = UTC
MEAN_ELEMENT_THEORY = SGP/SGP4

EPOCH          = 2026-03-03T10:30:11.479968
MEAN_MOTION    = 15.60504522
ECCENTRICITY   = .0014161
INCLINATION    = 81.2334
RA_OF_ASC_NODE = 59.7479
ARG_OF_PERICENTER = 312.4305
MEAN_ANOMALY   = 47.5749

EPHEMERIS_TYPE = 0
CLASSIFICATION_TYPE = U
NORAD_CAT_ID   = 5118
ELEMENT_SET_NO = 999
REV_AT_EPOCH   = 98769
BSTAR          = .54511E-3
MEAN_MOTION_DOT = .45292E-3
MEAN_MOTION_DDOT = 0

CCSDS_OMM_VERS = 2.0
CREATION_DATE  = 
ORIGINATOR     = 

OBJECT_NAME    = ASTEX 1
OBJECT_ID      = 1971-089A
CENTER_NAME    = EARTH
REF_FRAME      = TEME
TIME_SYSTEM    = UTC
MEAN_ELEMENT_THEORY = SGP/SGP4

EPOCH          = 2026-03-03T06:28:29.537184
MEAN_MOTION    = 14.50761653
ECCENTRICITY   = .0017841
INCLINATION    = 92.7130
RA_OF_ASC_NODE = 149.6837
ARG_OF_PERICENTER = 104.7887
MEAN_ANOMALY   = 255.5297

EPHEMERIS_TYPE = 0
CLASSIFICATION_TYPE = U
NORAD_CAT_ID   = 5560
ELEMENT_SET_NO = 999
REV_AT_EPOCH   = 86137
BSTAR          = .16234E-3
MEAN_MOTION_DOT = .639E-5
MEAN_MOTION_DDOT = 0

CCSDS_OMM_VERS = 2.0
CREATION_DATE  = 
ORIGINATOR     = 

OBJECT_NAME    = SL-8 R/B
OBJECT_ID      = 1971-119B
CENTER_NAME    = EARTH
REF_FRAME      = TEME
TIME_SYSTEM    = UTC
MEAN_ELEMENT_THEORY = SGP/SGP4

EPOCH          = 2026-03-03T11:08:57.065568
MEAN_MOTION    = 14.37659737
ECCENTRICITY   = .0549956
INCLINATION    = 73.8877
RA_OF_ASC_NODE = 187.3513
ARG_OF_PERICENTER = 155.2786
MEAN_ANOMALY   = 207.5840

EPHEMERIS_TYPE = 0
CLASSIFICATION_TYPE = U
NORAD_CAT_ID   = 5730
ELEMENT_SET_NO = 999
REV_AT_EPOCH   = 65459
BSTAR          = .82294E-3
MEAN_MOTION_DOT = .15846E-3
MEAN_MOTION_DDOT = 0

CCSDS_OMM_VERS = 2.0
CREATION_DATE  = 
ORIGINATOR     = 

OBJECT_NAME    = OAO 3 (COPERNICUS)
OBJECT_ID      = 1972-065A
CENTER_NAME    = EARTH
REF_FRAME      = TEME
TIME_SYSTEM    = UTC
MEAN_ELEMENT_THEORY = SGP/SGP4

EPOCH          = 2026-03-03T04:32:15.024192
MEAN_MOTION    = 14.59991462
ECCENTRICITY   = .0005961
INCLINATION    = 35.0068
RA_OF_ASC_NODE = 334.3522
ARG_OF_PERICENTER = 110.3057
MEAN_ANOMALY   = 46.3840

EPHEMERIS_TYPE = 0
CLASSIFICATION_TYPE = U
NORAD_CAT_ID   = 6153
ELEMENT_SET_NO = 999
REV_AT_EPOCH   = 84524
BSTAR          = .1011E-3
MEAN_MOTION_DOT = .471E-5
MEAN_MOTION_DDOT = 0

