ATLAS CENTAUR 2         
1 00694U 63047A   26062.46693701  .00001727  00000+0  20102-3 0  9995
2 00694  30.3524 230.4202 0547826  25.4455 337.2095 14.12045494130746
THOR AGENA D R/B        
1 00733U 64002A   26062.45186788  .00000293  00000+0  12203-3 0  9992
2 00733  99.1228  75.4495 0031915 276.7754  82.9798 14.34015812237405
SL-3 R/B                
1 00877U 64053B   26062.19064678  .00000476  00000+0  11620-3 0  9996
2 00877  65.0788 350.2898 0079470 294.2851  64.9963 14.61361057265847
SL-8 R/B                
1 02802U 67045B   26062.27762911  .00000584  00000+0  16903-3 0  9993
2 02802  74.0136   0.0625 0063929   7.8474 352.3668 14.45615280 88091
SL-8 R/B                
1 03230U 68040B   26062.18759480  .00003877  00000+0  28775-3 0  9990
2 03230  74.0331 326.9792 0024193 152.8748 207.3710 15.03201860 89036
OAO 2                   
1 03597U 68110A   26062.09128248  .00000331  00000+0  94349-4 0  9999
2 03597  34.9936 302.0647 0005189 151.8779 208.2192 14.47303058 18146
ISIS 1                  
1 03669U 69009A   26062.25891632  .00000213  00000+0  13476-3 0  9999
2 03669  88.4549 156.0096 1707823 102.1350 277.5422 11.30411838347802
SERT 2                  
1 04327U 70009A   26062.45125431  .00000003  00000+0  60976-4 0  9997
2 04327  99.2752   5.8864 0004805 170.9589 308.1213 13.58729201779042
SL-3 R/B                
1 05118U 71028B   26062.43763287  .00045292  00000+0  54511-3 0  9999
2 05118  81.2334  59.7479 0014161 312.4305  47.5749 15.60504522987695
ASTEX 1                 
1 05560U 71089A   26062.26978631  .00000639  00000+0  16234-3 0  9995
2 05560  92.7130 149.6837 0017841 104.7887 255.5297 14.50761653861372
SL-8 R/B                
1 05730U 71119B   26062.46454937  .00015846  00000+0  82294-3 0  9993
2 05730  73.8877 187.3513 0549956 155.2786 207.5840 14.37659737654594
OAO 3 (COPERNICUS)      
1 06153U 72065A   26062.18906278  .00000471  00000+0  10110-3 0  9999
2 06153  35.0068 334.3522 0005961 110.3057  46.3840 14.59991462845247
